EUTELSAT 8 WEST B       
1 40875U 15039B   25219.61296956 -.00000061  00000+0  00000+0 0  9991
2 40875   0.0673 346.5868 0003605 150.4334  32.0112  1.00271696 36545
EUTELSAT 9B             
1 41310U 16005A   25220.11604045  .00000065  00000+0  00000+0 0  9992
2 41310   0.0184  52.2663 0001486  93.1504 222.2281  1.00270029 34972
EUTELSAT 65 WEST A      
1 41382U 16014A   25220.08100321 -.00000273  00000+0  00000+0 0  9997
2 41382   0.0506  18.2811 0002309 115.2234 147.3039  1.00271308 34505
EUTELSAT 117 WEST B     
1 41589U 16038B   25220.01951050 -.00000008  00000+0  00000+0 0  9994
2 41589   0.0172 234.2013 0000366  43.8331 288.7609  1.00272524 33561
EUTELSAT 172B           
1 42741U 17029B   25220.07688407 -.00000002  00000+0  00000+0 0  9999
2 42741   0.0187 154.0057 0000294 287.3929  75.1130  1.00271638 30573
EUTELSAT 7C             
1 44334U 19034B   25219.83013358  .00000052  00000+0  00000+0 0  9990
2 44334   0.0745 189.4534 0003462 292.4891 140.4945  1.00271945 22987
EUTELSAT 5 WEST B       
1 44624U 19067A   25220.11326711 -.00000039  00000+0  00000+0 0  9997
2 44624   0.0908 309.6850 0003189 186.4343 216.5195  1.00271433 21294
EUTELSAT KONNECT        
1 45027U 20005B   25219.63586435  .00000053  00000+0  00000+0 0  9990
2 45027   0.0572  95.2862 0001332  86.8485  10.3635  1.00268836 21177
